$GPGGA,000000,2500.000,N,12100.000,E,1,08,0.9,100.0,M,0.0,M,,
$GPGGA,000000,2500.000,N,12100.006,E,1,08,0.9,100.0,M,0.0,M,,
$GPGGA,000000,2500.000,N,12100.012,E,1,08,0.9,100.0,M,0.0,M,,
$GPGGA,000000,2500.000,N,12100.018,E,1,08,0.9,100.0,M,0.0,M,,
$GPGGA,000000,2500.000,N,12100.024,E,1,08,0.9,100.0,M,0.0,M,,
$GPGGA,000000,2500.000,N,12100.030,E,1,08,0.9,100.0,M,0.0,M,,
$GPGGA,000000,2500.000,N,12100.036,E,1,08,0.9,100.0,M,0.0,M,,
$GPGGA,000000,2500.000,N,12100.042,E,1,08,0.9,100.0,M,0.0,M,,
$GPGGA,000000,2500.000,N,12100.048,E,1,08,0.9,100.0,M,0.0,M,,
$GPGGA,000000,2500.000,N,12100.054,E,1,08,0.9,100.0,M,0.0,M,,
$GPGGA,000000,2500.000,N,12100.060,E,1,08,0.9,100.0,M,0.0,M,,
$GPGGA,000000,2500.000,N,12100.066,E,1,08,0.9,100.0,M,0.0,M,,
$GPGGA,000000,2500.000,N,12100.072,E,1,08,0.9,100.0,M,0.0,M,,
$GPGGA,000000,2500.000,N,12100.078,E,1,08,0.9,100.0,M,0.0,M,,
$GPGGA,000000,2500.000,N,12100.084,E,1,08,0.9,100.0,M,0.0,M,,
$GPGGA,000000,2500.000,N,12100.090,E,1,08,0.9,100.0,M,0.0,M,,
$GPGGA,000000,2500.000,N,12100.096,E,1,08,0.9,100.0,M,0.0,M,,
$GPGGA,000000,2500.000,N,12100.102,E,1,08,0.9,100.0,M,0.0,M,,
$GPGGA,000000,2500.000,N,12100.108,E,1,08,0.9,100.0,M,0.0,M,,
$GPGGA,000000,2500.000,N,12100.114,E,1,08,0.9,100.0,M,0.0,M,,
$GPGGA,000000,2500.000,N,12100.120,E,1,08,0.9,100.0,M,0.0,M,,
$GPGGA,000000,2500.000,N,12100.126,E,1,08,0.9,100.0,M,0.0,M,,
$GPGGA,000000,2500.000,N,12100.132,E,1,08,0.9,100.0,M,0.0,M,,
$GPGGA,000000,2500.000,N,12100.138,E,1,08,0.9,100.0,M,0.0,M,,
$GPGGA,000000,2500.000,N,12100.144,E,1,08,0.9,100.0,M,0.0,M,,
$GPGGA,000000,2500.000,N,12100.150,E,1,08,0.9,100.0,M,0.0,M,,
$GPGGA,000000,2500.000,N,12100.156,E,1,08,0.9,100.0,M,0.0,M,,
$GPGGA,000000,2500.000,N,12100.162,E,1,08,0.9,100.0,M,0.0,M,,
$GPGGA,000000,2500.000,N,12100.168,E,1,08,0.9,100.0,M,0.0,M,,
$GPGGA,000000,2500.000,N,12100.174,E,1,08,0.9,100.0,M,0.0,M,,
$GPGGA,000000,2500.000,N,12100.180,E,1,08,0.9,100.0,M,0.0,M,,
$GPGGA,000000,2500.000,N,12100.186,E,1,08,0.9,100.0,M,0.0,M,,
$GPGGA,000000,2500.000,N,12100.192,E,1,08,0.9,100.0,M,0.0,M,,
$GPGGA,000000,2500.000,N,12100.198,E,1,08,0.9,100.0,M,0.0,M,,
$GPGGA,000000,2500.000,N,12100.204,E,1,08,0.9,100.0,M,0.0,M,,
$GPGGA,000000,2500.000,N,12100.210,E,1,08,0.9,100.0,M,0.0,M,,
$GPGGA,000000,2500.000,N,12100.216,E,1,08,0.9,100.0,M,0.0,M,,
$GPGGA,000000,2500.000,N,12100.222,E,1,08,0.9,100.0,M,0.0,M,,
$GPGGA,000000,2500.000,N,12100.228,E,1,08,0.9,100.0,M,0.0,M,,
$GPGGA,000000,2500.000,N,12100.234,E,1,08,0.9,100.0,M,0.0,M,,
$GPGGA,000000,2500.000,N,12100.240,E,1,08,0.9,100.0,M,0.0,M,,
$GPGGA,000000,2500.000,N,12100.246,E,1,08,0.9,100.0,M,0.0,M,,
$GPGGA,000000,2500.000,N,12100.252,E,1,08,0.9,100.0,M,0.0,M,,
$GPGGA,000000,2500.000,N,12100.258,E,1,08,0.9,100.0,M,0.0,M,,
$GPGGA,000000,2500.000,N,12100.264,E,1,08,0.9,100.0,M,0.0,M,,
$GPGGA,000000,2500.000,N,12100.270,E,1,08,0.9,100.0,M,0.0,M,,
$GPGGA,000000,2500.000,N,12100.276,E,1,08,0.9,100.0,M,0.0,M,,
$GPGGA,000000,2500.000,N,12100.282,E,1,08,0.9,100.0,M,0.0,M,,
$GPGGA,000000,2500.000,N,12100.288,E,1,08,0.9,100.0,M,0.0,M,,
$GPGGA,000000,2500.000,N,12100.294,E,1,08,0.9,100.0,M,0.0,M,,
$GPGGA,000000,2500.000,N,12100.300,E,1,08,0.9,100.0,M,0.0,M,,
$GPGGA,000000,2500.000,N,12100.306,E,1,08,0.9,100.0,M,0.0,M,,
$GPGGA,000000,2500.000,N,12100.312,E,1,08,0.9,100.0,M,0.0,M,,
$GPGGA,000000,2500.000,N,12100.318,E,1,08,0.9,100.0,M,0.0,M,,
$GPGGA,000000,2500.000,N,12100.324,E,1,08,0.9,100.0,M,0.0,M,,
$GPGGA,000000,2500.000,N,12100.330,E,1,08,0.9,100.0,M,0.0,M,,
$GPGGA,000000,2500.000,N,12100.336,E,1,08,0.9,100.0,M,0.0,M,,
$GPGGA,000000,2500.000,N,12100.342,E,1,08,0.9,100.0,M,0.0,M,,
$GPGGA,000000,2500.000,N,12100.348,E,1,08,0.9,100.0,M,0.0,M,,
$GPGGA,000000,2500.000,N,12100.354,E,1,08,0.9,100.0,M,0.0,M,,
$GPGGA,000000,2500.000,N,12100.360,E,1,08,0.9,100.0,M,0.0,M,,
$GPGGA,000000,2500.000,N,12100.366,E,1,08,0.9,100.0,M,0.0,M,,
$GPGGA,000000,2500.000,N,12100.372,E,1,08,0.9,100.0,M,0.0,M,,
$GPGGA,000000,2500.000,N,12100.378,E,1,08,0.9,100.0,M,0.0,M,,
$GPGGA,000000,2500.000,N,12100.384,E,1,08,0.9,100.0,M,0.0,M,,
$GPGGA,000000,2500.000,N,12100.390,E,1,08,0.9,100.0,M,0.0,M,,
$GPGGA,000000,2500.000,N,12100.396,E,1,08,0.9,100.0,M,0.0,M,,
$GPGGA,000000,2500.000,N,12100.402,E,1,08,0.9,100.0,M,0.0,M,,
$GPGGA,000000,2500.000,N,12100.408,E,1,08,0.9,100.0,M,0.0,M,,
$GPGGA,000000,2500.000,N,12100.414,E,1,08,0.9,100.0,M,0.0,M,,
$GPGGA,000000,2500.000,N,12100.420,E,1,08,0.9,100.0,M,0.0,M,,
$GPGGA,000000,2500.000,N,12100.426,E,1,08,0.9,100.0,M,0.0,M,,
$GPGGA,000000,2500.000,N,12100.432,E,1,08,0.9,100.0,M,0.0,M,,
$GPGGA,000000,2500.000,N,12100.438,E,1,08,0.9,100.0,M,0.0,M,,
$GPGGA,000000,2500.000,N,12100.444,E,1,08,0.9,100.0,M,0.0,M,,
$GPGGA,000000,2500.000,N,12100.450,E,1,08,0.9,100.0,M,0.0,M,,
$GPGGA,000000,2500.000,N,12100.456,E,1,08,0.9,100.0,M,0.0,M,,
$GPGGA,000000,2500.000,N,12100.462,E,1,08,0.9,100.0,M,0.0,M,,
$GPGGA,000000,2500.000,N,12100.468,E,1,08,0.9,100.0,M,0.0,M,,
$GPGGA,000000,2500.000,N,12100.474,E,1,08,0.9,100.0,M,0.0,M,,
$GPGGA,000000,2500.000,N,12100.480,E,1,08,0.9,100.0,M,0.0,M,,
$GPGGA,000000,2500.000,N,12100.486,E,1,08,0.9,100.0,M,0.0,M,,
$GPGGA,000000,2500.000,N,12100.492,E,1,08,0.9,100.0,M,0.0,M,,
$GPGGA,000000,2500.000,N,12100.498,E,1,08,0.9,100.0,M,0.0,M,,
$GPGGA,000000,2500.000,N,12100.504,E,1,08,0.9,100.0,M,0.0,M,,
$GPGGA,000000,2500.000,N,12100.510,E,1,08,0.9,100.0,M,0.0,M,,
$GPGGA,000000,2500.000,N,12100.516,E,1,08,0.9,100.0,M,0.0,M,,
$GPGGA,000000,2500.000,N,12100.522,E,1,08,0.9,100.0,M,0.0,M,,
$GPGGA,000000,2500.000,N,12100.528,E,1,08,0.9,100.0,M,0.0,M,,
$GPGGA,000000,2500.000,N,12100.534,E,1,08,0.9,100.0,M,0.0,M,,
$GPGGA,000000,2500.000,N,12100.540,E,1,08,0.9,100.0,M,0.0,M,,
$GPGGA,000000,2500.000,N,12100.546,E,1,08,0.9,100.0,M,0.0,M,,
$GPGGA,000000,2500.000,N,12100.552,E,1,08,0.9,100.0,M,0.0,M,,
$GPGGA,000000,2500.000,N,12100.558,E,1,08,0.9,100.0,M,0.0,M,,
$GPGGA,000000,2500.000,N,12100.564,E,1,08,0.9,100.0,M,0.0,M,,
$GPGGA,000000,2500.000,N,12100.570,E,1,08,0.9,100.0,M,0.0,M,,
$GPGGA,000000,2500.000,N,12100.576,E,1,08,0.9,100.0,M,0.0,M,,
$GPGGA,000000,2500.000,N,12100.582,E,1,08,0.9,100.0,M,0.0,M,,
$GPGGA,000000,2500.000,N,12100.588,E,1,08,0.9,100.0,M,0.0,M,,
$GPGGA,000000,2500.000,N,12100.594,E,1,08,0.9,100.0,M,0.0,M,,
$GPGGA,000000,2500.000,N,12100.600,E,1,08,0.9,100.0,M,0.0,M,,
$GPGGA,000000,2500.000,N,12100.606,E,1,08,0.9,100.0,M,0.0,M,,
$GPGGA,000000,2500.000,N,12100.612,E,1,08,0.9,100.0,M,0.0,M,,
$GPGGA,000000,2500.000,N,12100.618,E,1,08,0.9,100.0,M,0.0,M,,
$GPGGA,000000,2500.000,N,12100.624,E,1,08,0.9,100.0,M,0.0,M,,
$GPGGA,000000,2500.000,N,12100.630,E,1,08,0.9,100.0,M,0.0,M,,
$GPGGA,000000,2500.000,N,12100.636,E,1,08,0.9,100.0,M,0.0,M,,
$GPGGA,000000,2500.000,N,12100.642,E,1,08,0.9,100.0,M,0.0,M,,
$GPGGA,000000,2500.000,N,12100.648,E,1,08,0.9,100.0,M,0.0,M,,
$GPGGA,000000,2500.000,N,12100.654,E,1,08,0.9,100.0,M,0.0,M,,
$GPGGA,000000,2500.000,N,12100.660,E,1,08,0.9,100.0,M,0.0,M,,
$GPGGA,000000,2500.000,N,12100.666,E,1,08,0.9,100.0,M,0.0,M,,
$GPGGA,000000,2500.000,N,12100.672,E,1,08,0.9,100.0,M,0.0,M,,
$GPGGA,000000,2500.000,N,12100.678,E,1,08,0.9,100.0,M,0.0,M,,
$GPGGA,000000,2500.000,N,12100.684,E,1,08,0.9,100.0,M,0.0,M,,
$GPGGA,000000,2500.000,N,12100.690,E,1,08,0.9,100.0,M,0.0,M,,
$GPGGA,000000,2500.000,N,12100.696,E,1,08,0.9,100.0,M,0.0,M,,
$GPGGA,000000,2500.000,N,12100.702,E,1,08,0.9,100.0,M,0.0,M,,
$GPGGA,000000,2500.000,N,12100.708,E,1,08,0.9,100.0,M,0.0,M,,
$GPGGA,000000,2500.000,N,12100.714,E,1,08,0.9,100.0,M,0.0,M,,
$GPGGA,000000,2500.000,N,12100.720,E,1,08,0.9,100.0,M,0.0,M,,
$GPGGA,000000,2500.000,N,12100.726,E,1,08,0.9,100.0,M,0.0,M,,
$GPGGA,000000,2500.000,N,12100.732,E,1,08,0.9,100.0,M,0.0,M,,
$GPGGA,000000,2500.000,N,12100.738,E,1,08,0.9,100.0,M,0.0,M,,
$GPGGA,000000,2500.000,N,12100.744,E,1,08,0.9,100.0,M,0.0,M,,
$GPGGA,000000,2500.000,N,12100.750,E,1,08,0.9,100.0,M,0.0,M,,
$GPGGA,000000,2500.000,N,12100.756,E,1,08,0.9,100.0,M,0.0,M,,
$GPGGA,000000,2500.000,N,12100.762,E,1,08,0.9,100.0,M,0.0,M,,
$GPGGA,000000,2500.000,N,12100.768,E,1,08,0.9,100.0,M,0.0,M,,
$GPGGA,000000,2500.000,N,12100.774,E,1,08,0.9,100.0,M,0.0,M,,
$GPGGA,000000,2500.000,N,12100.780,E,1,08,0.9,100.0,M,0.0,M,,
$GPGGA,000000,2500.000,N,12100.786,E,1,08,0.9,100.0,M,0.0,M,,
$GPGGA,000000,2500.000,N,12100.792,E,1,08,0.9,100.0,M,0.0,M,,
$GPGGA,000000,2500.000,N,12100.798,E,1,08,0.9,100.0,M,0.0,M,,
$GPGGA,000000,2500.000,N,12100.804,E,1,08,0.9,100.0,M,0.0,M,,
$GPGGA,000000,2500.000,N,12100.810,E,1,08,0.9,100.0,M,0.0,M,,
$GPGGA,000000,2500.000,N,12100.816,E,1,08,0.9,100.0,M,0.0,M,,
$GPGGA,000000,2500.000,N,12100.822,E,1,08,0.9,100.0,M,0.0,M,,
$GPGGA,000000,2500.000,N,12100.828,E,1,08,0.9,100.0,M,0.0,M,,
$GPGGA,000000,2500.000,N,12100.834,E,1,08,0.9,100.0,M,0.0,M,,
$GPGGA,000000,2500.000,N,12100.840,E,1,08,0.9,100.0,M,0.0,M,,
$GPGGA,000000,2500.000,N,12100.846,E,1,08,0.9,100.0,M,0.0,M,,
$GPGGA,000000,2500.000,N,12100.852,E,1,08,0.9,100.0,M,0.0,M,,
$GPGGA,000000,2500.000,N,12100.858,E,1,08,0.9,100.0,M,0.0,M,,
$GPGGA,000000,2500.000,N,12100.864,E,1,08,0.9,100.0,M,0.0,M,,
$GPGGA,000000,2500.000,N,12100.870,E,1,08,0.9,100.0,M,0.0,M,,
$GPGGA,000000,2500.000,N,12100.876,E,1,08,0.9,100.0,M,0.0,M,,
$GPGGA,000000,2500.000,N,12100.882,E,1,08,0.9,100.0,M,0.0,M,,
$GPGGA,000000,2500.000,N,12100.888,E,1,08,0.9,100.0,M,0.0,M,,
$GPGGA,000000,2500.000,N,12100.894,E,1,08,0.9,100.0,M,0.0,M,,
$GPGGA,000000,2500.000,N,12100.900,E,1,08,0.9,100.0,M,0.0,M,,
$GPGGA,000000,2500.000,N,12100.906,E,1,08,0.9,100.0,M,0.0,M,,
$GPGGA,000000,2500.000,N,12100.912,E,1,08,0.9,100.0,M,0.0,M,,
$GPGGA,000000,2500.000,N,12100.918,E,1,08,0.9,100.0,M,0.0,M,,
$GPGGA,000000,2500.000,N,12100.924,E,1,08,0.9,100.0,M,0.0,M,,
$GPGGA,000000,2500.000,N,12100.930,E,1,08,0.9,100.0,M,0.0,M,,
$GPGGA,000000,2500.000,N,12100.936,E,1,08,0.9,100.0,M,0.0,M,,
$GPGGA,000000,2500.000,N,12100.942,E,1,08,0.9,100.0,M,0.0,M,,
$GPGGA,000000,2500.000,N,12100.948,E,1,08,0.9,100.0,M,0.0,M,,
$GPGGA,000000,2500.000,N,12100.954,E,1,08,0.9,100.0,M,0.0,M,,
$GPGGA,000000,2500.000,N,12100.960,E,1,08,0.9,100.0,M,0.0,M,,
$GPGGA,000000,2500.000,N,12100.966,E,1,08,0.9,100.0,M,0.0,M,,
$GPGGA,000000,2500.000,N,12100.972,E,1,08,0.9,100.0,M,0.0,M,,
$GPGGA,000000,2500.000,N,12100.978,E,1,08,0.9,100.0,M,0.0,M,,
$GPGGA,000000,2500.000,N,12100.984,E,1,08,0.9,100.0,M,0.0,M,,
$GPGGA,000000,2500.000,N,12100.990,E,1,08,0.9,100.0,M,0.0,M,,
$GPGGA,000000,2500.000,N,12100.996,E,1,08,0.9,100.0,M,0.0,M,,
$GPGGA,000000,2500.000,N,12101.002,E,1,08,0.9,100.0,M,0.0,M,,
$GPGGA,000000,2500.000,N,12101.008,E,1,08,0.9,100.0,M,0.0,M,,
$GPGGA,000000,2500.000,N,12101.014,E,1,08,0.9,100.0,M,0.0,M,,
$GPGGA,000000,2500.000,N,12101.020,E,1,08,0.9,100.0,M,0.0,M,,
$GPGGA,000000,2500.000,N,12101.026,E,1,08,0.9,100.0,M,0.0,M,,
$GPGGA,000000,2500.000,N,12101.032,E,1,08,0.9,100.0,M,0.0,M,,
$GPGGA,000000,2500.000,N,12101.038,E,1,08,0.9,100.0,M,0.0,M,,
$GPGGA,000000,2500.000,N,12101.044,E,1,08,0.9,100.0,M,0.0,M,,
$GPGGA,000000,2500.000,N,12101.050,E,1,08,0.9,100.0,M,0.0,M,,
$GPGGA,000000,2500.000,N,12101.056,E,1,08,0.9,100.0,M,0.0,M,,
$GPGGA,000000,2500.000,N,12101.062,E,1,08,0.9,100.0,M,0.0,M,,
$GPGGA,000000,2500.000,N,12101.068,E,1,08,0.9,100.0,M,0.0,M,,
$GPGGA,000000,2500.000,N,12101.074,E,1,08,0.9,100.0,M,0.0,M,,
